ONEWEB-0497             
1 54116U 22138D   26165.42097403  .00000146  00000+0  33191-3 0  9992
2 54116  87.9173 305.5138 0001792  99.7859 260.3476 13.19725589176445
ONEWEB-0499             
1 54117U 22138E   26165.40439197  .00000083  00000+0  17435-3 0  9994
2 54117  87.9165 305.5263 0001607  95.6559 264.4756 13.19727048176452
ONEWEB-0500             
1 54118U 22138F   26165.40675507  .00000117  00000+0  25937-3 0  9996
2 54118  87.9175 305.5199 0001916 100.2141 259.9208 13.19724660176464
ONEWEB-0501             
1 54119U 22138G   26165.43676316  .00000036  00000+0  56995-4 0  9998
2 54119  87.9175 305.5137 0001411 100.4492 259.6800 13.19723440176446
ONEWEB-0502             
1 54120U 22138H   26165.42254479  .00000127  00000+0  28428-3 0  9991
2 54120  87.9175 305.5054 0001630  94.6270 265.5048 13.19724509176466
ONEWEB-0503             
1 54121U 22138J   26165.41149721  .00000099  00000+0  21445-3 0  9994
2 54121  87.9178 305.5134 0001923  90.3033 269.8320 13.19724596176459
ONEWEB-0504             
1 54122U 22138K   26165.39886475  .00000065  00000+0  13054-3 0  9996
2 54122  87.9175 305.5207 0001647  93.7775 266.3546 13.19725214176462
ONEWEB-0505             
1 54123U 22138L   26165.39570853  .00000082  00000+0  17258-3 0  9996
2 54123  87.9173 305.5224 0001389  95.9376 264.1915 13.19726325176442
ONEWEB-0506             
1 54124U 22138M   26165.44623581  .00000022  00000+0  21840-4 0  9997
2 54124  87.9177 305.5093 0001532  99.1203 261.0103 13.19724244176449
ONEWEB-0507             
1 54125U 22138N   26165.39096694  .00000043  00000+0  75323-4 0  9999
2 54125  87.9165 305.5327 0001647 100.3092 259.8227 13.19725152176480
ONEWEB-0508             
1 54126U 22138P   26165.46361464 -.00000064  00000+0 -19311-3 0  9997
2 54126  87.9167 305.5178 0001473 106.6137 253.5157 13.19724558176474
ONEWEB-0509             
1 54127U 22138Q   26165.43833843  .00000022  00000+0  21372-4 0  9993
2 54127  87.9177 305.5122 0001686  99.1323 261.0000 13.19720009176449
ONEWEB-0510             
1 54128U 22138R   26165.55629126  .00000044  00000+0  77187-4 0  9993
2 54128  87.9193 274.9600 0002426  96.3818 263.7591 13.20772542178930
ONEWEB-0511             
1 54129U 22138S   26165.43519425  .00000003  00000+0 -24813-4 0  9995
2 54129  87.9174 305.5157 0001759  88.8594 271.2741 13.19725966176477
ONEWEB-0512             
1 54130U 22138T   26165.42728823  .00000027  00000+0  35861-4 0  9990
2 54130  87.9167 305.5225 0001524  93.2470 266.8838 13.19725138176445
ONEWEB-0513             
1 54131U 22138U   26165.43403990  .00000019  00000+0  14749-4 0  9990
2 54131  87.9174 305.4655 0001227  71.0233 289.1033 13.20269091176359
ONEWEB-0514             
1 54132U 22138V   26165.44308435 -.00000037  00000+0 -12470-3 0  9990
2 54132  87.9177 305.5128 0001981  96.8227 263.3131 13.19724425176464
ONEWEB-0515             
1 54133U 22138W   26165.54281419  .00000094  00000+0  20008-3 0  9991
2 54133  87.9197 274.9571 0002694 112.4953 247.6466 13.20770770178959
ONEWEB-0516             
1 54134U 22138X   26165.41780696  .00000134  00000+0  30185-3 0  9991
2 54134  87.9164 305.5244 0001801 102.4841 257.6494 13.19725544176469
ONEWEB-0517             
1 54135U 22138Y   26165.39727677  .00000085  00000+0  17915-3 0  9990
2 54135  87.9174 305.5205 0001955  89.2007 270.9350 13.19724994176461
ONEWEB-0518             
1 54136U 22138Z   26165.41625122  .00000154  00000+0  35121-3 0  9992
2 54136  87.9165 305.5267 0001817 104.6098 255.5236 13.19728019176463
ONEWEB-0519             
1 54137U 22138AA  26165.44151446  .00000040  00000+0  67724-4 0  9998
2 54137  87.9178 305.5126 0001926  92.0035 268.1319 13.19726606176477
ONEWEB-0520             
1 54138U 22138AB  26165.40044346  .00000068  00000+0  13696-3 0  9993
2 54138  87.9175 305.5208 0001572 100.3733 259.7577 13.19724780176452
ONEWEB-0521             
1 54139U 22138AC  26165.43360775  .00000024  00000+0  27376-4 0  9997
2 54139  87.9177 305.5030 0001975  92.2944 267.8415 13.19725240176406
ONEWEB-0522             
1 54140U 22138AD  26165.41307726  .00000098  00000+0  21308-3 0  9993
2 54140  87.9177 305.5095 0001707  97.7099 262.4227 13.19724837176440
ONEWEB-0523             
1 54141U 22138AE  26165.52934610  .00000083  00000+0  17175-3 0  9995
2 54141  87.9194 274.9699 0002802 100.1187 260.0263 13.20771292178954
ONEWEB-0524             
1 54142U 22138AF  26165.29197825  .00000068  00000+0  13458-3 0  9992
2 54142  87.9193 275.0142 0002543 118.2828 241.8562 13.20771275178920
ONEWEB-0525             
1 54143U 22138AG  26165.43202426  .00000069  00000+0  13935-3 0  9994
2 54143  87.9174 305.5135 0001527 105.1763 254.9539 13.19725299176464
ONEWEB-0526             
1 54144U 22138AH  26165.46519611  .00000021  00000+0  19906-4 0  9998
2 54144  87.9175 305.5072 0001761 102.1590 257.9740 13.19726231176443
ONEWEB-0529             
1 54145U 22138AJ  26165.39253757  .00000062  00000+0  12251-3 0  9997
2 54145  87.9167 305.5309 0001627 101.4973 258.6342 13.19724593176452
ONEWEB-0531             
1 54146U 22138AK  26165.35427635  .00000068  00000+0  13588-3 0  9992
2 54146  87.9191 274.9997 0002812 105.8104 254.3340 13.20771725178930
