OBJECT_NAME,OBJECT_ID,EPOCH,MEAN_MOTION,ECCENTRICITY,INCLINATION,RA_OF_ASC_NODE,ARG_OF_PERICENTER,MEAN_ANOMALY,EPHEMERIS_TYPE,CLASSIFICATION_TYPE,NORAD_CAT_ID,ELEMENT_SET_NO,REV_AT_EPOCH,BSTAR,MEAN_MOTION_DOT,MEAN_MOTION_DDOT
ONEWEB-0497,2022-138D,2026-06-14T10:06:12.156192,13.19725589,.0001792,87.9173,305.5138,99.7859,260.3476,0,U,54116,999,17644,.33191E-3,.146E-5,0
ONEWEB-0499,2022-138E,2026-06-14T09:42:19.466208,13.19727048,.0001607,87.9165,305.5263,95.6559,264.4756,0,U,54117,999,17645,.17435E-3,.83E-6,0
ONEWEB-0500,2022-138F,2026-06-14T09:45:43.638048,13.19724660,.0001916,87.9175,305.5199,100.2141,259.9208,0,U,54118,999,17646,.25937E-3,.117E-5,0
ONEWEB-0501,2022-138G,2026-06-14T10:28:56.337024,13.19723440,.0001411,87.9175,305.5137,100.4492,259.6800,0,U,54119,999,17644,.56995E-4,.36E-6,0
ONEWEB-0502,2022-138H,2026-06-14T10:08:27.869856,13.19724509,.000163,87.9175,305.5054,94.6270,265.5048,0,U,54120,999,17646,.28428E-3,.127E-5,0
ONEWEB-0503,2022-138J,2026-06-14T09:52:33.358944,13.19724596,.0001923,87.9178,305.5134,90.3033,269.8320,0,U,54121,999,17645,.21445E-3,.99E-6,0
ONEWEB-0504,2022-138K,2026-06-14T09:34:21.914400,13.19725214,.0001647,87.9175,305.5207,93.7775,266.3546,0,U,54122,999,17646,.13054E-3,.65E-6,0
ONEWEB-0505,2022-138L,2026-06-14T09:29:49.216992,13.19726325,.0001389,87.9173,305.5224,95.9376,264.1915,0,U,54123,999,17644,.17258E-3,.82E-6,0
ONEWEB-0506,2022-138M,2026-06-14T10:42:34.773984,13.19724244,.0001532,87.9177,305.5093,99.1203,261.0103,0,U,54124,999,17644,.2184E-4,.22E-6,0
ONEWEB-0507,2022-138N,2026-06-14T09:22:59.543616,13.19725152,.0001647,87.9165,305.5327,100.3092,259.8227,0,U,54125,999,17648,.75323E-4,.43E-6,0
ONEWEB-0508,2022-138P,2026-06-14T11:07:36.304896,13.19724558,.0001473,87.9167,305.5178,106.6137,253.5157,0,U,54126,999,17647,-.19311E-3,-.64E-6,0
ONEWEB-0509,2022-138Q,2026-06-14T10:31:12.440352,13.19720009,.0001686,87.9177,305.5122,99.1323,261.0000,0,U,54127,999,17644,.21372E-4,.22E-6,0
ONEWEB-0510,2022-138R,2026-06-14T13:21:03.564864,13.20772542,.0002426,87.9193,274.9600,96.3818,263.7591,0,U,54128,999,17893,.77187E-4,.44E-6,0
ONEWEB-0511,2022-138S,2026-06-14T10:26:40.783200,13.19725966,.0001759,87.9174,305.5157,88.8594,271.2741,0,U,54129,999,17647,-.24813E-4,.3E-7,0
ONEWEB-0512,2022-138T,2026-06-14T10:15:17.703072,13.19725138,.0001524,87.9167,305.5225,93.2470,266.8838,0,U,54130,999,17644,.35861E-4,.27E-6,0
ONEWEB-0513,2022-138U,2026-06-14T10:25:01.047360,13.20269091,.0001227,87.9174,305.4655,71.0233,289.1033,0,U,54131,999,17635,.14749E-4,.19E-6,0
ONEWEB-0514,2022-138V,2026-06-14T10:38:02.487840,13.19724425,.0001981,87.9177,305.5128,96.8227,263.3131,0,U,54132,999,17646,-.1247E-3,-.37E-6,0
ONEWEB-0515,2022-138W,2026-06-14T13:01:39.146016,13.20770770,.0002694,87.9197,274.9571,112.4953,247.6466,0,U,54133,999,17895,.20008E-3,.94E-6,0
ONEWEB-0516,2022-138X,2026-06-14T10:01:38.521344,13.19725544,.0001801,87.9164,305.5244,102.4841,257.6494,0,U,54134,999,17646,.30185E-3,.134E-5,0
ONEWEB-0517,2022-138Y,2026-06-14T09:32:04.712928,13.19724994,.0001955,87.9174,305.5205,89.2007,270.9350,0,U,54135,999,17646,.17915E-3,.85E-6,0
ONEWEB-0518,2022-138Z,2026-06-14T09:59:24.105408,13.19728019,.0001817,87.9165,305.5267,104.6098,255.5236,0,U,54136,999,17646,.35121E-3,.154E-5,0
ONEWEB-0519,2022-138AA,2026-06-14T10:35:46.849344,13.19726606,.0001926,87.9178,305.5126,92.0035,268.1319,0,U,54137,999,17647,.67724E-4,.4E-6,0
ONEWEB-0520,2022-138AB,2026-06-14T09:36:38.314944,13.19724780,.0001572,87.9175,305.5208,100.3733,259.7577,0,U,54138,999,17645,.13696E-3,.68E-6,0
ONEWEB-0521,2022-138AC,2026-06-14T10:24:23.709600,13.19725240,.0001975,87.9177,305.5030,92.2944,267.8415,0,U,54139,999,17640,.27376E-4,.24E-6,0
ONEWEB-0522,2022-138AD,2026-06-14T09:54:49.875264,13.19724837,.0001707,87.9177,305.5095,97.7099,262.4227,0,U,54140,999,17644,.21308E-3,.98E-6,0
ONEWEB-0523,2022-138AE,2026-06-14T12:42:15.503040,13.20771292,.0002802,87.9194,274.9699,100.1187,260.0263,0,U,54141,999,17895,.17175E-3,.83E-6,0
ONEWEB-0524,2022-138AF,2026-06-14T07:00:26.920800,13.20771275,.0002543,87.9193,275.0142,118.2828,241.8562,0,U,54142,999,17892,.13458E-3,.68E-6,0
ONEWEB-0525,2022-138AG,2026-06-14T10:22:06.896064,13.19725299,.0001527,87.9174,305.5135,105.1763,254.9539,0,U,54143,999,17646,.13935E-3,.69E-6,0
ONEWEB-0526,2022-138AH,2026-06-14T11:09:52.943904,13.19726231,.0001761,87.9175,305.5072,102.1590,257.9740,0,U,54144,999,17644,.19906E-4,.21E-6,0
ONEWEB-0529,2022-138AJ,2026-06-14T09:25:15.246048,13.19724593,.0001627,87.9167,305.5309,101.4973,258.6342,0,U,54145,999,17645,.12251E-3,.62E-6,0
ONEWEB-0531,2022-138AK,2026-06-14T08:30:09.476640,13.20771725,.0002812,87.9191,274.9997,105.8104,254.3340,0,U,54146,999,17893,.13588E-3,.68E-6,0
